{"type": "FeatureCollection", "features": [ {"type": "Feature", "properties": {"norad_id": 37532, "name": "COSMOS 2251 DEB", "group": "cosmos-2251-debris", "lat": -5.492863097671136, "lon": -161.05634125566436, "alt_km": 747.2467402693055, "timestamp": "2025-12-20T22:39:11.022396+00:00", "meta": {"OBJECT_NAME": "COSMOS 2251 DEB", "OBJECT_ID": "1993-036BNM", "EPOCH": "2025-12-14T09:22:45.259968", "MEAN_MOTION": 14.42410404, "ECCENTRICITY": 0.00160101, "INCLINATION": 74.0496, "RA_OF_ASC_NODE": 212.6604, "ARG_OF_PERICENTER": 313.2255, "MEAN_ANOMALY": 226.6563, "EPHEMERIS_TYPE": 0, "CLASSIFICATION_TYPE": "U", "NORAD_CAT_ID": 37532, "ELEMENT_SET_NO": 999, "REV_AT_EPOCH": 84939, "BSTAR": 0.00027461522, "MEAN_MOTION_DOT": 8.83e-06, "MEAN_MOTION_DDOT": 0}, "tle": {"line1": "1 37532U 93036BNM 25348.39080162  .00000883  00000+0  27462-3 0  9994", "line2": "2 37532  74.0496 212.6604 0016010 313.2255 226.6563 14.42410404849399"}}, "geometry": {"type": "Point", "coordinates": [-161.05634125566436, -5.492863097671136]}}, {"type": "Feature", "properties": {"norad_id": 37533, "name": "COSMOS 2251 DEB", "group": "cosmos-2251-debris", "lat": -73.20214998356124, "lon": 106.23423447715469, "alt_km": 774.8635726598204, "timestamp": "2025-12-20T22:39:11.022405+00:00", "meta": {"OBJECT_NAME": "COSMOS 2251 DEB", "OBJECT_ID": "1993-036BNN", "EPOCH": "2025-12-17T06:38:38.162976", "MEAN_MOTION": 14.12190824, "ECCENTRICITY": 0.0157786, "INCLINATION": 74.0692, "RA_OF_ASC_NODE": 183.8069, "ARG_OF_PERICENTER": 239.4795, "MEAN_ANOMALY": 119.0691, "EPHEMERIS_TYPE": 0, "CLASSIFICATION_TYPE": "U", "NORAD_CAT_ID": 37533, "ELEMENT_SET_NO": 999, "REV_AT_EPOCH": 62985, "BSTAR": 0.0010470743, "MEAN_MOTION_DOT": 2.138e-05, "MEAN_MOTION_DDOT": 0}, "tle": {"line1": "1 37533U 93036BNN 25351.27683059  .00002138  00000+0  10471-2 0  9996", "line2": "2 37533  74.0692 183.8069 0157786 239.4795 119.0691 14.12190824629858"}}, "geometry": {"type": "Point", "coordinates": [106.23423447715469, -73.20214998356124]}}, {"type": "Feature", "properties": {"norad_id": 37535, "name": "COSMOS 2251 DEB", "group": "cosmos-2251-debris", "lat": 54.668066840141464, "lon": -145.96436494451072, "alt_km": 687.0385576836043, "timestamp": "2025-12-20T22:39:11.022414+00:00", "meta": {"OBJECT_NAME": "COSMOS 2251 DEB", "OBJECT_ID": "1993-036BNQ", "EPOCH": "2025-12-19T15:30:43.235136", "MEAN_MOTION": 14.58499467, "ECCENTRICITY": 0.0027409, "INCLINATION": 74.024, "RA_OF_ASC_NODE": 60.3433, "ARG_OF_PERICENTER": 198.557, "MEAN_ANOMALY": 313.5255, "EPHEMERIS_TYPE": 0, "CLASSIFICATION_TYPE": "U", "NORAD_CAT_ID": 37535, "ELEMENT_SET_NO": 999, "REV_AT_EPOCH": 85425, "BSTAR": 0.0004624, "MEAN_MOTION_DOT": 2.129e-05, "MEAN_MOTION_DDOT": 0}, "tle": {"line1": "1 37535U 93036BNQ 25353.64633374  .00002129  00000+0  46240-3 0  9990", "line2": "2 37535  74.0240  60.3433 0027409 198.5570 313.5255 14.58499467854253"}}, "geometry": {"type": "Point", "coordinates": [-145.96436494451072, 54.668066840141464]}}, {"type": "Feature", "properties": {"norad_id": 37537, "name": "COSMOS 2251 DEB", "group": "cosmos-2251-debris", "lat": 51.04092698822487, "lon": -89.22626785980673, "alt_km": 729.1353552733935, "timestamp": "2025-12-20T22:39:11.022424+00:00", "meta": {"OBJECT_NAME": "COSMOS 2251 DEB", "OBJECT_ID": "1993-036BNS", "EPOCH": "2025-12-20T10:42:49.127616", "MEAN_MOTION": 14.37501224, "ECCENTRICITY": 0.00506405, "INCLINATION": 74.0118, "RA_OF_ASC_NODE": 250.923, "ARG_OF_PERICENTER": 29.0994, "MEAN_ANOMALY": 331.2965, "EPHEMERIS_TYPE": 0, "CLASSIFICATION_TYPE": "U", "NORAD_CAT_ID": 37537, "ELEMENT_SET_NO": 999, "REV_AT_EPOCH": 85144, "BSTAR": 0.00015589404, "MEAN_MOTION_DOT": 4.47e-06, "MEAN_MOTION_DDOT": 0}, "tle": {"line1": "1 37537U 93036BNS 25354.44640194  .00000447  00000+0  15589-3 0  9992", "line2": "2 37537  74.0118 250.9230 0050640  29.0994 331.2965 14.37501224851447"}}, "geometry": {"type": "Point", "coordinates": [-89.22626785980673, 51.04092698822487]}}, {"type": "Feature", "properties": {"norad_id": 37546, "name": "COSMOS 2251 DEB", "group": "cosmos-2251-debris", "lat": -32.23631207035417, "lon": 71.40606249523498, "alt_km": 634.1535063901056, "timestamp": "2025-12-20T22:39:11.022433+00:00", "meta": {"OBJECT_NAME": "COSMOS 2251 DEB", "OBJECT_ID": "1993-036BPB", "EPOCH": "2025-12-19T06:16:07.383648", "MEAN_MOTION": 14.80755456, "ECCENTRICITY": 0.0005308, "INCLINATION": 74.0228, "RA_OF_ASC_NODE": 85.1349, "ARG_OF_PERICENTER": 85.4439, "MEAN_ANOMALY": 274.7344, "EPHEMERIS_TYPE": 0, "CLASSIFICATION_TYPE": "U", "NORAD_CAT_ID": 37546, "ELEMENT_SET_NO": 999, "REV_AT_EPOCH": 65984, "BSTAR": 0.001677, "MEAN_MOTION_DOT": 0.00012912, "MEAN_MOTION_DDOT": 0}, "tle": {"line1": "1 37546U 93036BPB 25353.26119657  .00012912  00000+0  16770-2 0  9998", "line2": "2 37546  74.0228  85.1349 0005308  85.4439 274.7344 14.80755456659847"}}, "geometry": {"type": "Point", "coordinates": [71.40606249523498, -32.23631207035417]}}, {"type": "Feature", "properties": {"norad_id": 37959, "name": "COSMOS 2251 DEB", "group": "cosmos-2251-debris", "lat": -35.15539227499289, "lon": -127.03924366943437, "alt_km": 671.3317372396232, "timestamp": "2025-12-20T22:39:11.022442+00:00", "meta": {"OBJECT_NAME": "COSMOS 2251 DEB", "OBJECT_ID": "1993-036BPJ", "EPOCH": "2025-12-20T10:13:34.843008", "MEAN_MOTION": 14.5818752, "ECCENTRICITY": 0.00573653, "INCLINATION": 74.0087, "RA_OF_ASC_NODE": 42.2956, "ARG_OF_PERICENTER": 183.4936, "MEAN_ANOMALY": 195.8759, "EPHEMERIS_TYPE": 0, "CLASSIFICATION_TYPE": "U", "NORAD_CAT_ID": 37959, "ELEMENT_SET_NO": 999, "REV_AT_EPOCH": 80239, "BSTAR": 0.00040574585, "MEAN_MOTION_DOT": 1.884e-05, "MEAN_MOTION_DDOT": 0}, "tle": {"line1": "1 37959U 93036BPJ 25354.42609772  .00001884  00000+0  40575-3 0  9994", "line2": "2 37959  74.0087  42.2956 0057365 183.4936 195.8759 14.58187520802396"}}, "geometry": {"type": "Point", "coordinates": [-127.03924366943437, -35.15539227499289]}}, {"type": "Feature", "properties": {"norad_id": 37960, "name": "COSMOS 2251 DEB", "group": "cosmos-2251-debris", "lat": 28.673615166586735, "lon": -178.49128189222063, "alt_km": 1032.6266904661015, "timestamp": "2025-12-20T22:39:11.022451+00:00", "meta": {"OBJECT_NAME": "COSMOS 2251 DEB", "OBJECT_ID": "1993-036BPK", "EPOCH": "2025-12-16T19:35:27.740256", "MEAN_MOTION": 14.07867991, "ECCENTRICITY": 0.02485393, "INCLINATION": 74.059, "RA_OF_ASC_NODE": 179.7478, "ARG_OF_PERICENTER": 197.3915, "MEAN_ANOMALY": 161.86, "EPHEMERIS_TYPE": 0, "CLASSIFICATION_TYPE": "U", "NORAD_CAT_ID": 37960, "ELEMENT_SET_NO": 999, "REV_AT_EPOCH": 77463, "BSTAR": 0.00064570376, "MEAN_MOTION_DOT": 1.428e-05, "MEAN_MOTION_DDOT": 0}, "tle": {"line1": "1 37960U 93036BPK 25350.81629329  .00001428  00000+0  64570-3 0  9990", "line2": "2 37960  74.0590 179.7478 0248539 197.3915 161.8600 14.07867991774632"}}, "geometry": {"type": "Point", "coordinates": [-178.49128189222063, 28.673615166586735]}}, {"type": "Feature", "properties": {"norad_id": 37961, "name": "COSMOS 2251 DEB", "group": "cosmos-2251-debris", "lat": -72.56227083278901, "lon": 55.85901031422668, "alt_km": 699.6823796879107, "timestamp": "2025-12-20T22:39:11.022460+00:00", "meta": {"OBJECT_NAME": "COSMOS 2251 DEB", "OBJECT_ID": "1993-036BPL", "EPOCH": "2025-12-13T03:18:27.462240", "MEAN_MOTION": 14.57979799, "ECCENTRICITY": 0.00406759, "INCLINATION": 74.0407, "RA_OF_ASC_NODE": 136.3488, "ARG_OF_PERICENTER": 216.8805, "MEAN_ANOMALY": 142.9561, "EPHEMERIS_TYPE": 0, "CLASSIFICATION_TYPE": "U", "NORAD_CAT_ID": 37961, "ELEMENT_SET_NO": 999, "REV_AT_EPOCH": 80071, "BSTAR": 0.001729191, "MEAN_MOTION_DOT": 8.011e-05, "MEAN_MOTION_DDOT": 0}, "tle": {"line1": "1 37961U 93036BPL 25347.13781785  .00008011  00000+0  17292-2 0  9990", "line2": "2 37961  74.0407 136.3488 0040675 216.8805 142.9561 14.57979799800716"}}, "geometry": {"type": "Point", "coordinates": [55.85901031422668, -72.56227083278901]}}, {"type": "Feature", "properties": {"norad_id": 37966, "name": "COSMOS 2251 DEB", "group": "cosmos-2251-debris", "lat": -31.14839126420336, "lon": 43.47362716819683, "alt_km": 532.7149161029056, "timestamp": "2025-12-20T22:39:11.022469+00:00", "meta": {"OBJECT_NAME": "COSMOS 2251 DEB", "OBJECT_ID": "1993-036BPR", "EPOCH": "2025-12-13T08:51:38.453184", "MEAN_MOTION": 15.12754556, "ECCENTRICITY": 0.00088035, "INCLINATION": 73.9781, "RA_OF_ASC_NODE": 229.2381, "ARG_OF_PERICENTER": 105.8293, "MEAN_ANOMALY": 254.3871, "EPHEMERIS_TYPE": 0, "CLASSIFICATION_TYPE": "U", "NORAD_CAT_ID": 37966, "ELEMENT_SET_NO": 999, "REV_AT_EPOCH": 85352, "BSTAR": 0.0051051315, "MEAN_MOTION_DOT": 0.00090719, "MEAN_MOTION_DDOT": 0}, "tle": {"line1": "1 37966U 93036BPR 25347.36919506  .00090719  00000+0  51051-2 0  9991", "line2": "2 37966  73.9781 229.2381 0008803 105.8293 254.3871 15.12754556853526"}}, "geometry": {"type": "Point", "coordinates": [43.47362716819683, -31.14839126420336]}}, {"type": "Feature", "properties": {"norad_id": 37967, "name": "COSMOS 2251 DEB", "group": "cosmos-2251-debris", "lat": -65.13923471347755, "lon": -19.601731480362655, "alt_km": 656.8256243365149, "timestamp": "2025-12-20T22:39:11.022477+00:00", "meta": {"OBJECT_NAME": "COSMOS 2251 DEB", "OBJECT_ID": "1993-036BPS", "EPOCH": "2025-12-20T14:49:02.726688", "MEAN_MOTION": 14.40593891, "ECCENTRICITY": 0.01509765, "INCLINATION": 74.0159, "RA_OF_ASC_NODE": 122.7887, "ARG_OF_PERICENTER": 259.8907, "MEAN_ANOMALY": 98.5188, "EPHEMERIS_TYPE": 0, "CLASSIFICATION_TYPE": "U", "NORAD_CAT_ID": 37967, "ELEMENT_SET_NO": 999, "REV_AT_EPOCH": 64849, "BSTAR": 0.001111278, "MEAN_MOTION_DOT": 4.026e-05, "MEAN_MOTION_DDOT": 0}, "tle": {"line1": "1 37967U 93036BPS 25354.61739267  .00004026  00000+0  11113-2 0  9993", "line2": "2 37967  74.0159 122.7887 0150976 259.8907  98.5188 14.40593891648497"}}, "geometry": {"type": "Point", "coordinates": [-19.601731480362655, -65.13923471347755]}}]}